start=new Date('2022-09-18T00:00:00.000Z').valueOf();
sats=[{"APOAPSIS":"548.263","SEMIMAJOR_AXIS":"6925.383","CLASSIFICATION_TYPE":"U","REV_AT_EPOCH":"10845","LAUNCH_DATE":"2020-10-06","MEAN_MOTION_DDOT":"0.0000000000000","MEAN_MOTION":"15.06388770","GP_ID":"212866550","TLE_LINE2":"2 46558  53.0563  97.3811 0001465  78.4710 281.6443 15.06388770108455","DECAY_DATE":null,"SITE":"AFETR","PERIAPSIS":"546.233","COUNTRY_CODE":"US","RCS_SIZE":"LARGE","MEAN_ANOMALY":"281.6443","INCLINATION":"53.0563","EPOCH":"2022-09-17T21:54:40.348800","ECCENTRICITY":"0.00014650","OBJECT_ID":"2020-070AC","TLE_LINE1":"1 46558U 20070AC  22260.91296700 -.00000421  00000-0 -93909-5 0  9997","REF_FRAME":"TEME","MEAN_MOTION_DOT":"-0.00000421","OBJECT_NAME":"STARLINK-1680","ARG_OF_PERICENTER":"78.4710","CENTER_NAME":"EARTH","NORAD_CAT_ID":"46558","RA_OF_ASC_NODE":"97.3811","ELEMENT_SET_NO":"999","BSTAR":"-0.00000939090000","OBJECT_TYPE":"PAYLOAD","MEAN_ELEMENT_THEORY":"SGP4","FILE":"3576621","TIME_SYSTEM":"UTC","EPHEMERIS_TYPE":"0","PERIOD":"95.593"},{"FILE":"3576621","MEAN_ELEMENT_THEORY":"SGP4","TIME_SYSTEM":"UTC","EPHEMERIS_TYPE":"0","PERIOD":"95.592","CENTER_NAME":"EARTH","NORAD_CAT_ID":"46559","RA_OF_ASC_NODE":"82.4313","BSTAR":"0.00008148900000","ELEMENT_SET_NO":"999","OBJECT_TYPE":"PAYLOAD","MEAN_MOTION_DOT":"0.00000933","ARG_OF_PERICENTER":"72.6329","OBJECT_NAME":"STARLINK-1681","ECCENTRICITY":"0.00013340","OBJECT_ID":"2020-070AD","TLE_LINE1":"1 46559U 20070AD  22260.90048553  .00000933  00000-0  81489-4 0  9993","REF_FRAME":"TEME","RCS_SIZE":"LARGE","INCLINATION":"53.0557","MEAN_ANOMALY":"287.4805","EPOCH":"2022-09-17T21:36:41.949792","TLE_LINE2":"2 46559  53.0557  82.4313 0001334  72.6329 287.4805 15.06402585108680","SITE":"AFETR","DECAY_DATE":null,"PERIAPSIS":"546.282","COUNTRY_CODE":"US","REV_AT_EPOCH":"10868","LAUNCH_DATE":"2020-10-06","MEAN_MOTION_DDOT":"0.0000000000000","MEAN_MOTION":"15.06402585","GP_ID":"212867301","APOAPSIS":"548.129","SEMIMAJOR_AXIS":"6925.341","CLASSIFICATION_TYPE":"U"},{"LAUNCH_DATE":"2020-10-06","REV_AT_EPOCH":"10847","MEAN_MOTION_DDOT":"0.0000000000000","MEAN_MOTION":"15.06391451","GP_ID":"212867549","APOAPSIS":"548.342","CLASSIFICATION_TYPE":"U","SEMIMAJOR_AXIS":"6925.375","RCS_SIZE":"LARGE","INCLINATION":"53.0559","MEAN_ANOMALY":"281.6570","EPOCH":"2022-09-17T20:40:21.167040","TLE_LINE2":"2 46560  53.0559  97.6137 0001592  78.4598 281.6570 15.06391451108475","PERIAPSIS":"546.137","DECAY_DATE":null,"SITE":"AFETR","COUNTRY_CODE":"US","MEAN_MOTION_DOT":"-0.00000591","ARG_OF_PERICENTER":"78.4598","OBJECT_NAME":"STARLINK-1706","ECCENTRICITY":"0.00015920","OBJECT_ID":"2020-070AE","REF_FRAME":"TEME","TLE_LINE1":"1 46560U 20070AE  22260.86135610 -.00000591  00000-0 -20784-4 0  9994","TIME_SYSTEM":"UTC","FILE":"3576621","MEAN_ELEMENT_THEORY":"SGP4","EPHEMERIS_TYPE":"0","PERIOD":"95.593","NORAD_CAT_ID":"46560","CENTER_NAME":"EARTH","RA_OF_ASC_NODE":"97.6137","BSTAR":"-0.00002078400000","ELEMENT_SET_NO":"999","OBJECT_TYPE":"PAYLOAD"},{"TIME_SYSTEM":"UTC","MEAN_ELEMENT_THEORY":"SGP4","FILE":"3576621","PERIOD":"95.592","EPHEMERIS_TYPE":"0","RA_OF_ASC_NODE":"97.8486","NORAD_CAT_ID":"46561","CENTER_NAME":"EARTH","OBJECT_TYPE":"PAYLOAD","ELEMENT_SET_NO":"999","BSTAR":"0.00010989000000","OBJECT_NAME":"STARLINK-1709","ARG_OF_PERICENTER":"77.7570","MEAN_MOTION_DOT":"0.00001356","ECCENTRICITY":"0.00013750","REF_FRAME":"TEME","TLE_LINE1":"1 46561U 20070AF  22260.81248783  .00001356  00000-0  10989-3 0  9999","OBJECT_ID":"2020-070AF","RCS_SIZE":"LARGE","EPOCH":"2022-09-17T19:29:58.948512","MEAN_ANOMALY":"282.3573","INCLINATION":"53.0541","TLE_LINE2":"2 46561  53.0541  97.8486 0001375  77.7570 282.3573 15.06401957108460","COUNTRY_CODE":"US","PERIAPSIS":"546.255","SITE":"AFETR","DECAY_DATE":null,"LAUNCH_DATE":"2020-10-06","REV_AT_EPOCH":"10846","MEAN_MOTION_DDOT":"0.0000000000000","GP_ID":"212868271","MEAN_MOTION":"15.06401957","APOAPSIS":"548.160","CLASSIFICATION_TYPE":"U","SEMIMAJOR_AXIS":"6925.343"},{"TLE_LINE1":"1 46562U 20070AG  22260.87744774  .00000361  00000-0  43091-4 0  9993","REF_FRAME":"TEME","OBJECT_ID":"2020-070AG","ECCENTRICITY":"0.00014260","ARG_OF_PERICENTER":"88.4537","OBJECT_NAME":"STARLINK-1714","MEAN_MOTION_DOT":"0.00000361","OBJECT_TYPE":"PAYLOAD","BSTAR":"0.00004309100000","ELEMENT_SET_NO":"999","RA_OF_ASC_NODE":"92.5199","CENTER_NAME":"EARTH","NORAD_CAT_ID":"46562","PERIOD":"95.592","EPHEMERIS_TYPE":"0","MEAN_ELEMENT_THEORY":"SGP4","FILE":"3576621","TIME_SYSTEM":"UTC","SEMIMAJOR_AXIS":"6925.332","CLASSIFICATION_TYPE":"U","APOAPSIS":"548.185","GP_ID":"212867051","MEAN_MOTION":"15.06405372","LAUNCH_DATE":"2020-10-06","REV_AT_EPOCH":"10854","MEAN_MOTION_DDOT":"0.0000000000000","COUNTRY_CODE":"US","SITE":"AFETR","DECAY_DATE":null,"PERIAPSIS":"546.210","TLE_LINE2":"2 46562  53.0539  92.5199 0001426  88.4537 271.6615 15.06405372108542","EPOCH":"2022-09-17T21:03:31.484736","INCLINATION":"53.0539","MEAN_ANOMALY":"271.6615","RCS_SIZE":"LARGE"},{"BSTAR":"0.00007926700000","ELEMENT_SET_NO":"999","OBJECT_TYPE":"PAYLOAD","CENTER_NAME":"EARTH","NORAD_CAT_ID":"46563","RA_OF_ASC_NODE":"92.6319","EPHEMERIS_TYPE":"0","PERIOD":"95.592","FILE":"3576621","MEAN_ELEMENT_THEORY":"SGP4","TIME_SYSTEM":"UTC","OBJECT_ID":"2020-070AH","TLE_LINE1":"1 46563U 20070AH  22260.85997262  .00000899  00000-0  79267-4 0  9994","REF_FRAME":"TEME","ECCENTRICITY":"0.00014020","MEAN_MOTION_DOT":"0.00000899","OBJECT_NAME":"STARLINK-1730","ARG_OF_PERICENTER":"66.5797","SITE":"AFETR","DECAY_DATE":null,"PERIAPSIS":"546.241","COUNTRY_CODE":"US","TLE_LINE2":"2 46563  53.0554  92.6319 0001402  66.5797 293.5339 15.06400661108546","MEAN_ANOMALY":"293.5339","INCLINATION":"53.0554","EPOCH":"2022-09-17T20:38:21.634368","RCS_SIZE":"LARGE","SEMIMAJOR_AXIS":"6925.347","CLASSIFICATION_TYPE":"U","APOAPSIS":"548.182","MEAN_MOTION":"15.06400661","GP_ID":"212867802","LAUNCH_DATE":"2020-10-06","REV_AT_EPOCH":"10854","MEAN_MOTION_DDOT":"0.0000000000000"},{"MEAN_MOTION_DOT":"0.00000911","ARG_OF_PERICENTER":"82.5767","OBJECT_NAME":"STARLINK-1733","OBJECT_ID":"2020-070AJ","REF_FRAME":"TEME","TLE_LINE1":"1 46564U 20070AJ  22260.84154423  .00000911  00000-0  80056-4 0  9991","ECCENTRICITY":"0.00012030","EPHEMERIS_TYPE":"0","PERIOD":"95.592","TIME_SYSTEM":"UTC","FILE":"3576621","MEAN_ELEMENT_THEORY":"SGP4","BSTAR":"0.00008005600000","ELEMENT_SET_NO":"999","OBJECT_TYPE":"PAYLOAD","NORAD_CAT_ID":"46564","CENTER_NAME":"EARTH","RA_OF_ASC_NODE":"92.6883","MEAN_MOTION":"15.06399001","GP_ID":"212868050","MEAN_MOTION_DDOT":"0.0000000000000","LAUNCH_DATE":"2020-10-06","REV_AT_EPOCH":"10854","CLASSIFICATION_TYPE":"U","SEMIMAJOR_AXIS":"6925.352","APOAPSIS":"548.050","INCLINATION":"53.0536","MEAN_ANOMALY":"277.5358","EPOCH":"2022-09-17T20:11:49.421472","RCS_SIZE":"LARGE","PERIAPSIS":"546.383","DECAY_DATE":null,"SITE":"AFETR","COUNTRY_CODE":"US","TLE_LINE2":"2 46564  53.0536  92.6883 0001203  82.5767 277.5358 15.06399001108545"},{"SITE":"AFETR","DECAY_DATE":null,"PERIAPSIS":"546.177","COUNTRY_CODE":"US","TLE_LINE2":"2 46565  53.0551  92.8057 0001536  71.3981 288.7175 15.06391005108537","INCLINATION":"53.0551","MEAN_ANOMALY":"288.7175","EPOCH":"2022-09-17T19:39:58.223232","RCS_SIZE":"LARGE","SEMIMAJOR_AXIS":"6925.376","CLASSIFICATION_TYPE":"U","APOAPSIS":"548.305","MEAN_MOTION":"15.06391005","GP_ID":"212867773","REV_AT_EPOCH":"10853","LAUNCH_DATE":"2020-10-06","MEAN_MOTION_DDOT":"0.0000000000000","BSTAR":"0.00002719700000","ELEMENT_SET_NO":"999","OBJECT_TYPE":"PAYLOAD","CENTER_NAME":"EARTH","NORAD_CAT_ID":"46565","RA_OF_ASC_NODE":"92.8057","EPHEMERIS_TYPE":"0","PERIOD":"95.593","MEAN_ELEMENT_THEORY":"SGP4","FILE":"3576621","TIME_SYSTEM":"UTC","OBJECT_ID":"2020-070AK","TLE_LINE1":"1 46565U 20070AK  22260.81942388  .00000124  00000-0  27197-4 0  9997","REF_FRAME":"TEME","ECCENTRICITY":"0.00015360","MEAN_MOTION_DOT":"0.00000124","OBJECT_NAME":"STARLINK-1735","ARG_OF_PERICENTER":"71.3981"},{"APOAPSIS":"548.170","CLASSIFICATION_TYPE":"U","SEMIMAJOR_AXIS":"6925.340","REV_AT_EPOCH":"10853","LAUNCH_DATE":"2020-10-06","MEAN_MOTION_DDOT":"0.0000000000000","MEAN_MOTION":"15.06402852","GP_ID":"212866551","TLE_LINE2":"2 46566  53.0556  92.8633 0001394  72.4913 287.6228 15.06402852108532","PERIAPSIS":"546.239","DECAY_DATE":null,"SITE":"AFETR","COUNTRY_CODE":"US","RCS_SIZE":"LARGE","INCLINATION":"53.0556","MEAN_ANOMALY":"287.6228","EPOCH":"2022-09-17T19:18:43.746336","ECCENTRICITY":"0.00013940","OBJECT_ID":"2020-070AL","REF_FRAME":"TEME","TLE_LINE1":"1 46566U 20070AL  22260.80467299  .00000967  00000-0  83824-4 0  9994","MEAN_MOTION_DOT":"0.00000967","ARG_OF_PERICENTER":"72.4913","OBJECT_NAME":"STARLINK-1740","NORAD_CAT_ID":"46566","CENTER_NAME":"EARTH","RA_OF_ASC_NODE":"92.8633","ELEMENT_SET_NO":"999","BSTAR":"0.00008382400000","OBJECT_TYPE":"PAYLOAD","TIME_SYSTEM":"UTC","FILE":"3576621","MEAN_ELEMENT_THEORY":"SGP4","EPHEMERIS_TYPE":"0","PERIOD":"95.592"},{"INCLINATION":"53.0560","MEAN_ANOMALY":"268.6866","EPOCH":"2022-09-17T21:36:44.560800","RCS_SIZE":"LARGE","PERIAPSIS":"546.372","SITE":"AFETR","DECAY_DATE":null,"COUNTRY_CODE":"US","TLE_LINE2":"2 46567  53.0560  92.4261 0001246  91.4266 268.6866 15.06392880108557","MEAN_MOTION":"15.06392880","GP_ID":"212867302","LAUNCH_DATE":"2020-10-06","REV_AT_EPOCH":"10855","MEAN_MOTION_DDOT":"0.0000000000000","CLASSIFICATION_TYPE":"U","SEMIMAJOR_AXIS":"6925.370","APOAPSIS":"548.098","EPHEMERIS_TYPE":"0","PERIOD":"95.593","TIME_SYSTEM":"UTC","FILE":"3576621","MEAN_ELEMENT_THEORY":"SGP4","BSTAR":"0.00003375300000","ELEMENT_SET_NO":"999","OBJECT_TYPE":"PAYLOAD","NORAD_CAT_ID":"46567","CENTER_NAME":"EARTH","RA_OF_ASC_NODE":"92.4261","MEAN_MOTION_DOT":"0.00000221","OBJECT_NAME":"STARLINK-1741","ARG_OF_PERICENTER":"91.4266","OBJECT_ID":"2020-070AM","REF_FRAME":"TEME","TLE_LINE1":"1 46567U 20070AM  22260.90051575  .00000221  00000-0  33753-4 0  9991","ECCENTRICITY":"0.00012460"}];
